STARLINK-37635          
1 69029U 26101E   26132.83335648 -.02120302  00000+0 -95293-2 0  9991
2 69029  97.2887 346.9394 0001453 105.8690 219.3759 15.87118860  2259
