{
  "norad_id": 69029,
  "name": "STARLINK-37635",
  "history": [
    {
      "epoch": "2026-05-12T20:00:01.999008Z",
      "apogee_km": 311.3370201977614,
      "perigee_km": 309.39334146401234,
      "latitude_deg": -34.72525182446321,
      "longitude_deg": -178.61407409294347,
      "height_km": 324.38965728302946,
      "semi_major_axis_km": 6688.502180830887,
      "eccentricity": 0.0001453,
      "inclination_deg": 97.2887,
      "raan_deg": 346.9394,
      "arg_perigee_deg": 105.869,
      "mean_anomaly_deg": 219.3759,
      "mean_motion_rev_day": 15.8711886
    }
  ]
}